[{"OBJECT_NAME":"STARLINK-6356","OBJECT_ID":"2023-099AM","EPOCH":"2026-03-09T11:36:16.741440","MEAN_MOTION":15.02535412,"ECCENTRICITY":0.00013055,"INCLINATION":43.0028,"RA_OF_ASC_NODE":237.2287,"ARG_OF_PERICENTER":267.0897,"MEAN_ANOMALY":92.9796,"EPHEMERIS_TYPE":0,"CLASSIFICATION_TYPE":"U","NORAD_CAT_ID":57363,"ELEMENT_SET_NO":999,"REV_AT_EPOCH":14623,"BSTAR":-7.8358666e-5,"MEAN_MOTION_DOT":-1.262e-5,"MEAN_MOTION_DDOT":0},{"OBJECT_NAME":"CZ-6A DEB","OBJECT_ID":"2024-140PS","EPOCH":"2026-03-09T14:06:57.647808","MEAN_MOTION":14.7419151,"ECCENTRICITY":0.0174551,"INCLINATION":88.9937,"RA_OF_ASC_NODE":280.0508,"ARG_OF_PERICENTER":181.2195,"MEAN_ANOMALY":178.8626,"EPHEMERIS_TYPE":0,"CLASSIFICATION_TYPE":"U","NORAD_CAT_ID":61124,"ELEMENT_SET_NO":999,"REV_AT_EPOCH":8308,"BSTAR":0.00056687,"MEAN_MOTION_DOT":4.809e-5,"MEAN_MOTION_DDOT":0}]
